[{"OBJECT_NAME":"STARLINK-5401","OBJECT_ID":"2022-177BC","EPOCH":"2026-03-08T12:30:42.167232","MEAN_MOTION":15.02896874,"ECCENTRICITY":0.0001749,"INCLINATION":43.0079,"RA_OF_ASC_NODE":126.3191,"ARG_OF_PERICENTER":274.8194,"MEAN_ANOMALY":85.2449,"EPHEMERIS_TYPE":0,"CLASSIFICATION_TYPE":"U","NORAD_CAT_ID":54870,"ELEMENT_SET_NO":999,"REV_AT_EPOCH":17693,"BSTAR":0.0019979415,"MEAN_MOTION_DOT":0.0002715,"MEAN_MOTION_DDOT":0},{"OBJECT_NAME":"CZ-6A R\/B","OBJECT_ID":"2022-031C","EPOCH":"2026-03-09T19:50:55.360896","MEAN_MOTION":15.07476837,"ECCENTRICITY":0.00174842,"INCLINATION":97.8104,"RA_OF_ASC_NODE":273.2347,"ARG_OF_PERICENTER":181.6412,"MEAN_ANOMALY":178.4761,"EPHEMERIS_TYPE":0,"CLASSIFICATION_TYPE":"U","NORAD_CAT_ID":52152,"ELEMENT_SET_NO":999,"REV_AT_EPOCH":21633,"BSTAR":0.00020233161,"MEAN_MOTION_DOT":3.012e-5,"MEAN_MOTION_DDOT":0}]
